OBJECT_NAME,OBJECT_ID,EPOCH,MEAN_MOTION,ECCENTRICITY,INCLINATION,RA_OF_ASC_NODE,ARG_OF_PERICENTER,MEAN_ANOMALY,EPHEMERIS_TYPE,CLASSIFICATION_TYPE,NORAD_CAT_ID,ELEMENT_SET_NO,REV_AT_EPOCH,BSTAR,MEAN_MOTION_DOT,MEAN_MOTION_DDOT
BEIDOU-2 G3,2010-024A,2026-07-13T13:50:34.476288,1.00268625,.00069888,4.5751,61.3881,359.4819,157.8037,0,U,36590,999,5903,0,-.142E-5,0
BADR-5,2010-025A,2026-07-13T13:36:30.013056,1.00269584,.00050782,0.0473,120.2537,76.1604,329.6123,0,U,36592,999,5348,0,.149E-5,0
COMS 1,2010-032A,2026-07-13T09:53:41.272800,0.99168371,.00112481,4.8701,75.0394,14.7012,319.1150,0,U,36744,999,5134,0,-.255E-5,0
ARABSAT-5A,2010-032B,2026-07-13T13:36:30.013056,1.00273405,.00057144,0.1074,65.7731,55.9141,44.3682,0,U,36745,999,5891,0,.149E-5,0
ECHOSTAR 15,2010-034A,2026-07-13T14:36:40.908384,1.00271527,.00018139,0.0514,267.5795,183.9436,300.3099,0,U,36792,999,5858,0,-.4E-7,0
BEIDOU-2 IGSO-1,2010-036A,2026-07-12T21:21:01.985184,1.00264571,.0059161,54.3059,162.7278,225.3005,330.1612,0,U,36828,999,5835,0,-.103E-5,0
NILESAT 201,2010-037A,2026-07-13T11:30:38.532096,1.00271853,.00054772,0.0241,122.3173,16.5206,318.1955,0,U,36830,999,5864,0,-.61E-6,0
RASCOM-QAF 1R,2010-037B,2026-07-13T13:28:30.779040,1.00272905,.00064312,0.0303,83.8493,19.0639,33.5459,0,U,36831,999,5857,0,.15E-6,0
AEHF-1 (USA 214),2010-039A,2026-07-13T06:45:48.243168,1.00273534,.0003688,8.2829,67.7047,37.6082,317.2383,0,U,36868,999,5391,0,.138E-5,0
XM-5,2010-053A,2026-07-13T06:37:25.387392,1.00270903,.0001728,0.0648,265.0318,322.3275,47.9546,0,U,37185,999,5774,0,-.26E-6,0
BSAT-3B,2010-056B,2026-07-13T14:23:41.540640,1.00267744,.00027641,0.0170,243.7206,301.9948,71.5286,0,U,37207,999,5236,0,0,0
BEIDOU-2 G4,2010-057A,2026-07-13T14:13:28.132608,1.00269860,.00056909,3.7092,68.7745,184.7415,51.2458,0,U,37210,999,5755,0,-.121E-5,0
SKYTERRA 1,2010-061A,2026-07-13T14:41:32.941248,1.00270183,.00025187,5.1791,50.8084,24.5464,335.1955,0,U,37218,999,5745,0,-.126E-5,0
HYLAS 1,2010-065A,2026-07-12T18:47:38.726304,1.00639639,.0001205,5.7058,72.7024,148.8424,20.1972,0,U,37237,999,714,0,.142E-5,0
INTELSAT 17 (IS-17),2010-065B,2026-07-13T12:04:02.396928,1.00270015,.00025429,0.0074,161.3408,318.4250,58.6153,0,U,37238,999,5351,0,-.5E-7,0
BEIDOU-2 IGSO-2,2010-068A,2026-07-13T13:44:56.551200,1.00273505,.00570644,47.4996,271.5029,213.7941,120.6971,0,U,37256,999,5705,0,-.188E-5,0
EUTELSAT KA-SAT 9A,2010-069A,2026-07-13T15:01:38.596224,1.00270849,.00043714,0.0628,18.4661,123.6824,23.7456,0,U,37258,999,4427,0,.57E-6,0
HISPASAT 30W-5,2010-070A,2026-07-13T09:53:56.249376,1.00270736,.00055246,0.0260,114.1441,12.3788,283.2524,0,U,37264,999,5344,0,-.219E-5,0
KOREASAT 6,2010-070B,2026-07-13T14:13:18.240672,1.00270980,.00024689,0.0033,115.8157,12.9409,175.9308,0,U,37265,999,5703,0,-.116E-5,0
BEIDOU-2 IGSO-3,2011-013A,2026-07-12T12:18:07.725024,1.00260977,.0035266,62.4426,39.9128,183.3051,358.3524,0,U,37384,999,5591,0,-.165E-5,0
INTELSAT 28 (IS-28),2011-016A,2026-07-13T09:53:26.297088,1.00271362,.00036739,1.8716,82.2967,39.8842,285.7483,0,U,37392,999,5354,0,-.23E-5,0
YAHSAT 1A,2011-016B,2026-07-13T00:01:37.613856,1.00273826,.00032304,0.0260,57.0637,58.4864,228.2504,0,U,37393,999,4266,0,0,0
SBIRS GEO-1 (USA 230),2011-019A,2026-07-13T13:42:36.927072,1.00272269,.00019559,4.5930,53.0998,52.9259,82.8745,0,U,37481,999,5566,0,.92E-6,0
TELSTAR 14R,2011-021A,2026-07-13T13:09:55.062144,1.00272894,.00015889,0.0828,84.8957,4.1326,336.8812,0,U,37602,999,5609,0,-.284E-5,0
GSAT-8,2011-022A,2026-07-13T13:43:36.830784,1.00272624,.0002735,2.1969,81.5014,165.2374,305.6929,0,U,37605,999,5348,0,.78E-6,0
ST-2,2011-022B,2026-07-13T13:52:56.748576,1.00272198,.00014493,0.0189,54.3423,74.2823,99.0796,0,U,37606,999,5554,0,-.215E-5,0
ZHONGXING-10,2011-026A,2026-07-13T13:52:11.820576,1.00268365,.00032384,1.1117,83.8959,23.8842,117.1906,0,U,37677,999,5526,0,-.192E-5,0
SES-3,2011-035A,2026-07-13T14:41:10.477248,1.00271309,.00018969,1.3925,82.7940,30.8111,295.1843,0,U,37748,999,5485,0,-.107E-5,0
KAZSAT-2,2011-035B,2026-07-13T13:52:34.284576,1.00268878,.00021341,0.0255,114.7633,59.0232,52.2921,0,U,37749,999,5366,0,-.201E-5,0
BEIDOU-2 IGSO-4,2011-038A,2026-07-12T21:52:21.720000,1.00279714,.01603423,54.6038,165.4445,231.4539,316.2369,0,U,37763,999,5490,0,-.17E-6,0
ASTRA 1N,2011-041A,2026-07-13T13:33:22.812768,1.00270710,.00056942,0.0606,4.9161,110.3749,38.6904,0,U,37775,999,4479,0,.116E-5,0
BSAT-3C (JCSAT-110R),2011-041B,2026-07-13T14:23:41.539776,1.00270882,.00002416,0.0234,330.9168,256.1224,30.3117,0,U,37776,999,5073,0,-.355E-5,0
