BEIDOU-2 G3             
1 36590U 10024A   26194.57678792 -.00000142  00000+0  00000+0 0  9999
2 36590   4.5751  61.3881 0006988 359.4819 157.8037  1.00268625 59032
BADR-5                  
1 36592U 10025A   26194.56701404  .00000149  00000+0  00000+0 0  9994
2 36592   0.0473 120.2537 0005078  76.1604 329.6123  1.00269584 53486
COMS 1                  
1 36744U 10032A   26194.41228325 -.00000255  00000+0  00000+0 0  9990
2 36744   4.8701  75.0394 0011248  14.7012 319.1150  0.99168371 51342
ARABSAT-5A              
1 36745U 10032B   26194.56701404  .00000149  00000+0  00000+0 0  9992
2 36745   0.1074  65.7731 0005714  55.9141  44.3682  1.00273405 58912
ECHOSTAR 15             
1 36792U 10034A   26194.60880681 -.00000004  00000+0  00000+0 0  9997
2 36792   0.0514 267.5795 0001813 183.9436 300.3099  1.00271527 58582
BEIDOU-2 IGSO-1         
1 36828U 10036A   26193.88960631 -.00000103  00000+0  00000+0 0  9992
2 36828  54.3059 162.7278 0059161 225.3005 330.1612  1.00264571 58350
NILESAT 201             
1 36830U 10037A   26194.47961264 -.00000061  00000+0  00000+0 0  9998
2 36830   0.0241 122.3173 0005477  16.5206 318.1955  1.00271853 58643
RASCOM-QAF 1R           
1 36831U 10037B   26194.56146735  .00000015  00000+0  00000+0 0  9995
2 36831   0.0303  83.8493 0006431  19.0639  33.5459  1.00272905 58576
AEHF-1 (USA 214)        
1 36868U 10039A   26194.28180837  .00000138  00000+0  00000+0 0  9993
2 36868   8.2829  67.7047 0003688  37.6082 317.2383  1.00273534 53914
XM-5                    
1 37185U 10053A   26194.27598828 -.00000026  00000+0  00000+0 0  9991
2 37185   0.0648 265.0318 0001728 322.3275  47.9546  1.00270903 57741
BSAT-3B                 
1 37207U 10056B   26194.59978635  .00000000  00000+0  00000+0 0  9993
2 37207   0.0170 243.7206 0002764 301.9948  71.5286  1.00267744 52362
BEIDOU-2 G4             
1 37210U 10057A   26194.59268672 -.00000121  00000+0  00000+0 0  9996
2 37210   3.7092  68.7745 0005690 184.7415  51.2458  1.00269860 57552
SKYTERRA 1              
1 37218U 10061A   26194.61218682 -.00000126  00000+0  00000+0 0  9993
2 37218   5.1791  50.8084 0002518  24.5464 335.1955  1.00270183 57456
HYLAS 1                 
1 37237U 10065A   26193.78308711  .00000142  00000+0  00000+0 0  9995
2 37237   5.7058  72.7024 0001205 148.8424  20.1972  1.00639639  7140
INTELSAT 17 (IS-17)     
1 37238U 10065B   26194.50280552 -.00000005  00000+0  00000+0 0  9998
2 37238   0.0074 161.3408 0002542 318.4250  58.6153  1.00270015 53513
BEIDOU-2 IGSO-2         
1 37256U 10068A   26194.57287675 -.00000188  00000+0  00000+0 0  9993
2 37256  47.4996 271.5029 0057064 213.7941 120.6971  1.00273505 57055
EUTELSAT KA-SAT 9A      
1 37258U 10069A   26194.62614116  .00000057  00000+0  00000+0 0  9990
2 37258   0.0628  18.4661 0004371 123.6824  23.7456  1.00270849 44275
HISPASAT 30W-5          
1 37264U 10070A   26194.41245659 -.00000219  00000+0  00000+0 0  9999
2 37264   0.0260 114.1441 0005524  12.3788 283.2524  1.00270736 53441
KOREASAT 6              
1 37265U 10070B   26194.59257223 -.00000116  00000+0  00000+0 0  9995
2 37265   0.0033 115.8157 0002468  12.9409 175.9308  1.00270980 57039
BEIDOU-2 IGSO-3         
1 37384U 11013A   26193.51258941 -.00000165  00000+0  00000+0 0  9998
2 37384  62.4426  39.9128 0035266 183.3051 358.3524  1.00260977 55918
INTELSAT 28 (IS-28)     
1 37392U 11016A   26194.41210992 -.00000230  00000+0  00000+0 0  9997
2 37392   1.8716  82.2967 0003673  39.8842 285.7483  1.00271362 53542
YAHSAT 1A               
1 37393U 11016B   26194.00112979  .00000000  00000+0  00000+0 0  9993
2 37393   0.0260  57.0637 0003230  58.4864 228.2504  1.00273826 42666
SBIRS GEO-1 (USA 230)   
1 37481U 11019A   26194.57126073  .00000092  00000+0  00000+0 0  9997
2 37481   4.5930  53.0998 0001955  52.9259  82.8745  1.00272269 55667
TELSTAR 14R             
1 37602U 11021A   26194.54855396 -.00000284  00000+0  00000+0 0  9993
2 37602   0.0828  84.8957 0001588   4.1326 336.8812  1.00272894 56091
GSAT-8                  
1 37605U 11022A   26194.57195406  .00000078  00000+0  00000+0 0  9999
2 37605   2.1969  81.5014 0002735 165.2374 305.6929  1.00272624 53482
ST-2                    
1 37606U 11022B   26194.57843459 -.00000215  00000+0  00000+0 0  9992
2 37606   0.0189  54.3423 0001449  74.2823  99.0796  1.00272198 55546
ZHONGXING-10            
1 37677U 11026A   26194.57791459 -.00000192  00000+0  00000+0 0  9990
2 37677   1.1117  83.8959 0003238  23.8842 117.1906  1.00268365 55262
SES-3                   
1 37748U 11035A   26194.61192682 -.00000107  00000+0  00000+0 0  9993
2 37748   1.3925  82.7940 0001896  30.8111 295.1843  1.00271309 54856
KAZSAT-2                
1 37749U 11035B   26194.57817459 -.00000201  00000+0  00000+0 0  9990
2 37749   0.0255 114.7633 0002134  59.0232  52.2921  1.00268878 53661
BEIDOU-2 IGSO-4         
1 37763U 11038A   26193.91136250 -.00000017  00000+0  00000+0 0  9994
2 37763  54.6038 165.4445 0160342 231.4539 316.2369  1.00279714 54905
ASTRA 1N                
1 37775U 11041A   26194.56484737  .00000116  00000+0  00000+0 0  9998
2 37775   0.0606   4.9161 0005694 110.3749  38.6904  1.00270710 44795
BSAT-3C (JCSAT-110R)    
1 37776U 11041B   26194.59978634 -.00000355  00000+0  00000+0 0  9992
2 37776   0.0234 330.9168 0000241 256.1224  30.3117  1.00270882 50738
